OBJECT_NAME,OBJECT_ID,EPOCH,MEAN_MOTION,ECCENTRICITY,INCLINATION,RA_OF_ASC_NODE,ARG_OF_PERICENTER,MEAN_ANOMALY,EPHEMERIS_TYPE,CLASSIFICATION_TYPE,NORAD_CAT_ID,ELEMENT_SET_NO,REV_AT_EPOCH,BSTAR,MEAN_MOTION_DOT,MEAN_MOTION_DDOT
SL-16 R/B,1996-051B,2026-07-16T15:12:44.792064,14.12457066,.0017895,70.7645,262.3326,296.2444,63.6836,0,U,24298,999,53985,.11128E-3,.156E-5,0
ORBVIEW 2 (SEASTAR),1997-037A,2026-07-16T10:23:21.669216,14.35567092,.000306,98.8714,5.2664,58.4586,301.6897,0,U,24883,999,52694,.45064E-4,.83E-6,0
SL-16 R/B,1998-043G,2026-07-16T19:56:46.366944,14.26072892,.0009939,98.8379,152.2481,6.8649,353.2665,0,U,25400,999,45739,.19331E-4,.1E-7,0
SL-16 R/B,1998-045B,2026-07-16T14:51:19.755360,14.16205074,.0008102,71.0108,270.4344,204.4036,155.6705,0,U,25407,999,44535,-.4094E-4,-.129E-5,0
ISS (ZARYA),1998-067A,2026-07-16T20:42:56.047680,15.49027546,.0006736,51.6311,153.2312,304.1301,55.9047,0,U,25544,999,57635,.76099E-4,.3748E-4,0
CZ-4B R/B,1999-025C,2026-07-16T15:16:45.626016,14.18287859,.0036565,98.6471,238.7318,335.5496,135.3409,0,U,25732,999,40644,.19969E-4,-.2E-7,0
OKEAN-O,1999-039A,2026-07-16T14:42:04.403808,14.80498340,.0000873,97.9301,256.0703,90.5104,269.6208,0,U,25860,999,45346,.40894E-4,.261E-5,0
SL-16 R/B,1999-039B,2026-07-16T14:34:07.879296,14.81871578,.0014422,97.9823,256.3838,193.7470,166.3352,0,U,25861,999,45595,.35437E-4,.227E-5,0
DELTA 2 R/B,1999-041E,2026-07-16T19:59:07.151424,14.12089241,.0501418,51.7611,145.3532,9.5910,351.4176,0,U,25876,999,38127,.2164E-3,.1106E-4,0
HELIOS 1B,1999-064A,2026-07-16T15:08:53.576160,14.88076999,.0001849,98.1582,103.6202,52.7564,307.3820,0,U,25977,999,70443,.74037E-4,.622E-5,0
TERRA,1999-068A,2026-07-16T21:14:55.357152,14.61124440,.000348,97.9440,246.2517,119.2437,353.1464,0,U,25994,999,41394,.43683E-4,.171E-5,0
SL-16 R/B,2000-006B,2026-07-16T09:14:39.031872,14.15837929,.001723,71.0002,187.2308,338.3421,21.6972,0,U,26070,999,36677,-.1369E-4,-.75E-6,0
TITAN 4B R/B,2000-047B,2026-07-16T19:06:23.573952,15.10337546,.0045791,67.9873,37.2201,257.1679,102.4353,0,U,26474,999,41240,.80793E-4,.1218E-4,0
ENVISAT,2002-009A,2026-07-16T20:40:41.077056,14.39070925,.0001325,98.3846,148.5207,82.9021,300.9180,0,U,27386,999,27775,.19309E-4,.17E-6,0
IDEFIX & ARIANE 42P R/B,2002-021B,2026-07-16T18:35:02.256288,14.31094127,.0011994,98.5941,134.9376,161.8816,198.2797,0,U,27422,999,26248,.477E-4,.82E-6,0
AQUA,2002-022A,2026-07-16T06:55:12.936288,14.62197882,.0000983,98.4296,167.1566,113.3067,21.1629,0,U,27424,999,28752,.77532E-4,.341E-5,0
CZ-4B R/B,2002-024C,2026-07-16T16:11:58.831008,14.14568391,.0050396,98.8685,250.3011,17.8203,93.8550,0,U,27432,999,24747,.2257E-4,0,0
MIDORI II (ADEOS-II),2002-056A,2026-07-16T11:14:44.859264,14.29363387,.0001424,98.7895,156.9802,39.5466,320.5819,0,U,27597,999,22869,.52509E-4,.88E-6,0
H-2A R/B,2002-056E,2026-07-16T11:16:56.499168,14.33834299,.0070954,98.3329,153.0798,137.1643,333.4106,0,U,27601,999,23256,.54064E-4,.113E-5,0
CZ-4B R/B,2003-049C,2026-07-16T14:14:19.893984,14.55116581,.0047744,98.6911,197.6122,196.9414,163.0189,0,U,28059,999,20534,.3812E-4,.115E-5,0
CZ-2C R/B,2004-012C,2026-07-16T19:44:51.103680,15.85560346,.0011035,97.7045,277.0808,186.1120,174.0017,0,U,28222,999,22458,.46138E-3,.112094E-2,0
SL-16 R/B,2004-021B,2026-07-16T13:51:31.018176,14.14616508,.0006264,71.0029,322.0077,223.9423,136.1202,0,U,28353,999,14106,-.82895E-5,-.64E-6,0
CZ-4B R/B,2004-035C,2026-07-16T14:42:30.102624,15.31003303,.0029345,97.3353,230.3605,227.3665,132.5102,0,U,28415,999,19962,.13418E-3,.3992E-4,0
CZ-2C R/B,2004-046B,2026-07-16T15:22:32.452032,14.27033467,.0140205,98.1914,104.5765,133.1461,228.1544,0,U,28480,999,12689,.37846E-4,.62E-6,0
ARIANE 5 R/B,2004-049H,2026-07-16T11:58:21.130752,14.85479624,.0082597,98.2742,10.8890,293.9956,65.2626,0,U,28499,999,16491,.28989E-4,.199E-5,0
CZ-2D R/B,2005-024B,2026-07-16T12:21:55.343232,15.72867505,.0002644,97.3466,218.4796,188.6063,171.5155,0,U,28738,999,15994,.32896E-3,.44535E-3,0
ALOS (DAICHI),2006-002A,2026-07-16T20:01:54.177312,14.70103628,.000085,98.1339,153.3133,103.2829,256.8472,0,U,28931,999,9245,.84718E-4,.459E-5,0
H-2A R/B,2006-002B,2026-07-16T12:21:02.335968,15.18458470,.005087,98.2596,356.0096,161.5725,198.7365,0,U,28932,999,11397,.23675E-3,.4961E-4,0
RESURS-DK 1,2006-021A,2026-07-16T10:48:17.553024,15.13321208,.0007178,69.9306,263.7965,269.6714,90.3630,0,U,29228,999,10700,.53811E-4,.852E-5,0
CZ-4B R/B,2006-046C,2026-07-16T17:17:23.511264,15.17988507,.0032737,97.5435,242.2371,176.8615,183.2831,0,U,29507,999,7961,.11039E-3,.2203E-4,0
CZ-2C R/B,2007-010B,2026-07-16T07:06:15.475680,14.20281960,.0057758,98.4121,304.2264,280.5042,78.9631,0,U,31114,999,99797,.34017E-4,.32E-6,0
